CCSDS_OMM_VERS = 2.0
CREATION_DATE  = 
ORIGINATOR     = 

OBJECT_NAME    = CORAL
OBJECT_ID      = 1998-067YB
CENTER_NAME    = EARTH
REF_FRAME      = TEME
TIME_SYSTEM    = UTC
MEAN_ELEMENT_THEORY = SGP/SGP4

EPOCH          = 2026-02-23T05:31:53.829696
MEAN_MOTION    = 15.50824960
ECCENTRICITY   = .001189
INCLINATION    = 51.6308
RA_OF_ASC_NODE = 143.6052
ARG_OF_PERICENTER = 134.4508
MEAN_ANOMALY   = 225.7456

EPHEMERIS_TYPE = 0
CLASSIFICATION_TYPE = U
NORAD_CAT_ID   = 67685
ELEMENT_SET_NO = 999
REV_AT_EPOCH   = 254
BSTAR          = .79164E-3
MEAN_MOTION_DOT = .46455E-3
MEAN_MOTION_DDOT = 0

CCSDS_OMM_VERS = 2.0
CREATION_DATE  = 
ORIGINATOR     = 

OBJECT_NAME    = ISS OBJECT YC
OBJECT_ID      = 1998-067YC
CENTER_NAME    = EARTH
REF_FRAME      = TEME
TIME_SYSTEM    = UTC
MEAN_ELEMENT_THEORY = SGP/SGP4

EPOCH          = 2026-02-23T05:29:15.996768
MEAN_MOTION    = 15.51108116
ECCENTRICITY   = .0007702
INCLINATION    = 51.6314
RA_OF_ASC_NODE = 143.5941
ARG_OF_PERICENTER = 104.5865
MEAN_ANOMALY   = 255.5979

EPHEMERIS_TYPE = 0
CLASSIFICATION_TYPE = U
NORAD_CAT_ID   = 67686
ELEMENT_SET_NO = 999
REV_AT_EPOCH   = 254
BSTAR          = .92039E-3
MEAN_MOTION_DOT = .54606E-3
MEAN_MOTION_DDOT = 0

CCSDS_OMM_VERS = 2.0
CREATION_DATE  = 
ORIGINATOR     = 

OBJECT_NAME    = LEOPARD
OBJECT_ID      = 1998-067YD
CENTER_NAME    = EARTH
REF_FRAME      = TEME
TIME_SYSTEM    = UTC
MEAN_ELEMENT_THEORY = SGP/SGP4

EPOCH          = 2026-02-23T11:44:07.700064
MEAN_MOTION    = 15.50750520
ECCENTRICITY   = .0007771
INCLINATION    = 51.6312
RA_OF_ASC_NODE = 142.3325
ARG_OF_PERICENTER = 108.2365
MEAN_ANOMALY   = 251.9471

EPHEMERIS_TYPE = 0
CLASSIFICATION_TYPE = U
NORAD_CAT_ID   = 67687
ELEMENT_SET_NO = 999
REV_AT_EPOCH   = 250
BSTAR          = .70811E-3
MEAN_MOTION_DOT = .41301E-3
MEAN_MOTION_DDOT = 0

CCSDS_OMM_VERS = 2.0
CREATION_DATE  = 
ORIGINATOR     = 

OBJECT_NAME    = ISS OBJECT YE
OBJECT_ID      = 1998-067YE
CENTER_NAME    = EARTH
REF_FRAME      = TEME
TIME_SYSTEM    = UTC
MEAN_ELEMENT_THEORY = SGP/SGP4

EPOCH          = 2026-02-22T06:18:34.486560
MEAN_MOTION    = 15.50878079
ECCENTRICITY   = .00076954
INCLINATION    = 51.6324
RA_OF_ASC_NODE = 148.3958
ARG_OF_PERICENTER = 103.3001
MEAN_ANOMALY   = 256.8847

EPHEMERIS_TYPE = 0
CLASSIFICATION_TYPE = U
NORAD_CAT_ID   = 67688
ELEMENT_SET_NO = 999
REV_AT_EPOCH   = 231
BSTAR          = .81294922E-3
MEAN_MOTION_DOT = .4774E-3
MEAN_MOTION_DDOT = 0

CCSDS_OMM_VERS = 2.0
CREATION_DATE  = 
ORIGINATOR     = 

OBJECT_NAME    = PRC TEST SPACECRAFT 4
OBJECT_ID      = 2026-024A
CENTER_NAME    = EARTH
REF_FRAME      = TEME
TIME_SYSTEM    = UTC
MEAN_ELEMENT_THEORY = SGP/SGP4

EPOCH          = 2026-02-23T11:49:03.698688
MEAN_MOTION    = 14.91676693
ECCENTRICITY   = .0006174
INCLINATION    = 49.9851
RA_OF_ASC_NODE = 89.4175
ARG_OF_PERICENTER = 305.4349
MEAN_ANOMALY   = 54.6015

EPHEMERIS_TYPE = 0
CLASSIFICATION_TYPE = U
NORAD_CAT_ID   = 67689
ELEMENT_SET_NO = 999
REV_AT_EPOCH   = 246
BSTAR          = .23856E-4
MEAN_MOTION_DOT = -.2E-7
MEAN_MOTION_DDOT = 0

CCSDS_OMM_VERS = 2.0
CREATION_DATE  = 
ORIGINATOR     = 

OBJECT_NAME    = CZ-2F R/B
OBJECT_ID      = 2026-024B
CENTER_NAME    = EARTH
REF_FRAME      = TEME
TIME_SYSTEM    = UTC
MEAN_ELEMENT_THEORY = SGP/SGP4

EPOCH          = 2026-02-23T12:03:53.226432
MEAN_MOTION    = 15.33709375
ECCENTRICITY   = .0176097
INCLINATION    = 49.9861
RA_OF_ASC_NODE = 85.7219
ARG_OF_PERICENTER = 216.0960
MEAN_ANOMALY   = 142.8007

EPHEMERIS_TYPE = 0
CLASSIFICATION_TYPE = U
NORAD_CAT_ID   = 67690
ELEMENT_SET_NO = 999
REV_AT_EPOCH   = 251
BSTAR          = .40588E-3
MEAN_MOTION_DOT = .21959E-3
MEAN_MOTION_DDOT = 0

CCSDS_OMM_VERS = 2.0
CREATION_DATE  = 
ORIGINATOR     = 

OBJECT_NAME    = CZ-2F DEB
OBJECT_ID      = 2026-024C
CENTER_NAME    = EARTH
REF_FRAME      = TEME
TIME_SYSTEM    = UTC
MEAN_ELEMENT_THEORY = SGP/SGP4

EPOCH          = 2026-02-23T11:23:57.896160
MEAN_MOTION    = 15.78494667
ECCENTRICITY   = .0211797
INCLINATION    = 49.9051
RA_OF_ASC_NODE = 81.5803
ARG_OF_PERICENTER = 226.2476
MEAN_ANOMALY   = 132.0800

EPHEMERIS_TYPE = 0
CLASSIFICATION_TYPE = U
NORAD_CAT_ID   = 67691
ELEMENT_SET_NO = 999
REV_AT_EPOCH   = 255
BSTAR          = .8809E-3
MEAN_MOTION_DOT = .853E-2
MEAN_MOTION_DDOT = .10491E-4

CCSDS_OMM_VERS = 2.0
CREATION_DATE  = 
ORIGINATOR     = 

OBJECT_NAME    = CZ-2F DEB
OBJECT_ID      = 2026-024D
CENTER_NAME    = EARTH
REF_FRAME      = TEME
TIME_SYSTEM    = UTC
MEAN_ELEMENT_THEORY = SGP/SGP4

EPOCH          = 2026-02-23T11:56:14.061408
MEAN_MOTION    = 15.19282721
ECCENTRICITY   = .025186
INCLINATION    = 50.3150
RA_OF_ASC_NODE = 88.1398
ARG_OF_PERICENTER = 224.2014
MEAN_ANOMALY   = 133.8577

EPHEMERIS_TYPE = 0
CLASSIFICATION_TYPE = U
NORAD_CAT_ID   = 67692
ELEMENT_SET_NO = 999
REV_AT_EPOCH   = 246
BSTAR          = .4352E-2
MEAN_MOTION_DOT = .226612E-2
MEAN_MOTION_DDOT = 0

CCSDS_OMM_VERS = 2.0
CREATION_DATE  = 
ORIGINATOR     = 

OBJECT_NAME    = STARLINK-36748
OBJECT_ID      = 2026-025A
CENTER_NAME    = EARTH
REF_FRAME      = TEME
TIME_SYSTEM    = UTC
MEAN_ELEMENT_THEORY = SGP/SGP4

EPOCH          = 2026-02-23T12:00:00.998784
MEAN_MOTION    = 15.77755099
ECCENTRICITY   = .0001536
INCLINATION    = 97.2823
RA_OF_ASC_NODE = 165.3295
ARG_OF_PERICENTER = 75.5880
MEAN_ANOMALY   = 268.6494

EPHEMERIS_TYPE = 0
CLASSIFICATION_TYPE = U
NORAD_CAT_ID   = 67693
ELEMENT_SET_NO = 999
REV_AT_EPOCH   = 357
BSTAR          = -.13461E-1
MEAN_MOTION_DOT = -.1952082E-1
MEAN_MOTION_DDOT = 0

CCSDS_OMM_VERS = 2.0
CREATION_DATE  = 
ORIGINATOR     = 

OBJECT_NAME    = STARLINK-36753
OBJECT_ID      = 2026-025B
CENTER_NAME    = EARTH
REF_FRAME      = TEME
TIME_SYSTEM    = UTC
MEAN_ELEMENT_THEORY = SGP/SGP4

EPOCH          = 2026-02-23T12:00:00.998784
MEAN_MOTION    = 15.80712021
ECCENTRICITY   = .0001462
INCLINATION    = 97.2818
RA_OF_ASC_NODE = 165.3432
ARG_OF_PERICENTER = 95.4492
MEAN_ANOMALY   = 282.5623

EPHEMERIS_TYPE = 0
CLASSIFICATION_TYPE = U
NORAD_CAT_ID   = 67694
ELEMENT_SET_NO = 999
REV_AT_EPOCH   = 373
BSTAR          = -.1163E-1
MEAN_MOTION_DOT = -.1932882E-1
MEAN_MOTION_DDOT = 0

CCSDS_OMM_VERS = 2.0
CREATION_DATE  = 
ORIGINATOR     = 

OBJECT_NAME    = STARLINK-36750
OBJECT_ID      = 2026-025C
CENTER_NAME    = EARTH
REF_FRAME      = TEME
TIME_SYSTEM    = UTC
MEAN_ELEMENT_THEORY = SGP/SGP4

EPOCH          = 2026-02-23T12:00:00.998784
MEAN_MOTION    = 15.80749654
ECCENTRICITY   = .0001402
INCLINATION    = 97.2827
RA_OF_ASC_NODE = 165.3357
ARG_OF_PERICENTER = 72.9515
MEAN_ANOMALY   = 286.1348

EPHEMERIS_TYPE = 0
CLASSIFICATION_TYPE = U
NORAD_CAT_ID   = 67695
ELEMENT_SET_NO = 999
REV_AT_EPOCH   = 357
BSTAR          = .54946E-3
MEAN_MOTION_DOT = .106073E-2
MEAN_MOTION_DDOT = 0

CCSDS_OMM_VERS = 2.0
CREATION_DATE  = 
ORIGINATOR     = 

OBJECT_NAME    = STARLINK-36401
OBJECT_ID      = 2026-025D
CENTER_NAME    = EARTH
REF_FRAME      = TEME
TIME_SYSTEM    = UTC
MEAN_ELEMENT_THEORY = SGP/SGP4

EPOCH          = 2026-02-23T12:00:00.998784
MEAN_MOTION    = 15.80892359
ECCENTRICITY   = .000123
INCLINATION    = 97.2823
RA_OF_ASC_NODE = 165.3403
ARG_OF_PERICENTER = 78.7942
MEAN_ANOMALY   = 289.0865

EPHEMERIS_TYPE = 0
CLASSIFICATION_TYPE = U
NORAD_CAT_ID   = 67696
ELEMENT_SET_NO = 999
REV_AT_EPOCH   = 357
BSTAR          = -.8451E-3
MEAN_MOTION_DOT = -.15965E-2
MEAN_MOTION_DDOT = 0

