CORAL                   
1 67685U 98067YB  26054.23048414  .00046455  00000+0  79164-3 0  9998
2 67685  51.6308 143.6052 0011890 134.4508 225.7456 15.50824960  2544
ISS OBJECT YC           
1 67686U 98067YC  26054.22865737  .00054606  00000+0  92039-3 0  9996
2 67686  51.6314 143.5941 0007702 104.5865 255.5979 15.51108116  2549
LEOPARD                 
1 67687U 98067YD  26054.48897801  .00041301  00000+0  70811-3 0  9994
2 67687  51.6312 142.3325 0007771 108.2365 251.9471 15.50750520  2507
ISS OBJECT YE           
1 67688U 98067YE  26053.26289915  .00047740  00000+0  81295-3 0  9992
2 67688  51.6324 148.3958 0007695 103.3001 256.8847 15.50878079  2317
PRC TEST SPACECRAFT 4   
1 67689U 26024A   26054.49240392 -.00000002  00000+0  23856-4 0  9990
2 67689  49.9851  89.4175 0006174 305.4349  54.6015 14.91676693  2469
CZ-2F R/B               
1 67690U 26024B   26054.50269938  .00021959  00000+0  40588-3 0  9994
2 67690  49.9861  85.7219 0176097 216.0960 142.8007 15.33709375  2516
CZ-2F DEB               
1 67691U 26024C   26054.47497565  .00853000  10491-4  88090-3 0  9990
2 67691  49.9051  81.5803 0211797 226.2476 132.0800 15.78494667  2553
CZ-2F DEB               
1 67692U 26024D   26054.49738497  .00226612  00000+0  43520-2 0  9996
2 67692  50.3150  88.1398 0251860 224.2014 133.8577 15.19282721  2464
STARLINK-36748          
1 67693U 26025A   26054.50001156 -.01952082  00000+0 -13461-1 0  9995
2 67693  97.2823 165.3295 0001536  75.5880 268.6494 15.77755099  3572
STARLINK-36753          
1 67694U 26025B   26054.50001156 -.01932882  00000+0 -11630-1 0  9998
2 67694  97.2818 165.3432 0001462  95.4492 282.5623 15.80712021  3737
STARLINK-36750          
1 67695U 26025C   26054.50001156  .00106073  00000+0  54946-3 0  9990
2 67695  97.2827 165.3357 0001402  72.9515 286.1348 15.80749654  3572
STARLINK-36401          
1 67696U 26025D   26054.50001156 -.00159650  00000+0 -84510-3 0  9992
2 67696  97.2823 165.3403 0001230  78.7942 289.0865 15.80892359  3575
